start=new Date('2023-04-18T00:00:00.000Z').valueOf();
sats=[{"ECCENTRICITY":"0.00011820","PERIAPSIS":"524.277","MEAN_ANOMALY":"204.9090","OBJECT_ID":"2023-020AW","BSTAR":"-0.05403500000000","COUNTRY_CODE":"US","TIME_SYSTEM":"UTC","MEAN_ELEMENT_THEORY":"SGP4","RA_OF_ASC_NODE":"334.4008","DECAY_DATE":null,"REF_FRAME":"TEME","NORAD_CAT_ID":"55613","SITE":"AFETR","OBJECT_TYPE":"PAYLOAD","FILE":"3889391","GP_ID":"230268389","OBJECT_NAME":"STARLINK-5715","MEAN_MOTION":"15.13646531","TLE_LINE2":"2 55613  42.9996 334.4008 0001182 276.7259 204.9090 15.13646531  1306","APOAPSIS":"525.909","CENTER_NAME":"EARTH","TLE_LINE1":"1 55613U 23020AW  23107.91667824 -.00915195  00000-0 -54035-1 0  9993","MEAN_MOTION_DOT":"-0.00915195","REV_AT_EPOCH":"130","ARG_OF_PERICENTER":"276.7259","INCLINATION":"42.9996","LAUNCH_DATE":"2023-02-12","EPOCH":"2023-04-17T22:00:00.999936","MEAN_MOTION_DDOT":"0.0000000000000","PERIOD":"95.134","RCS_SIZE":"LARGE","ELEMENT_SET_NO":"999","CLASSIFICATION_TYPE":"U","EPHEMERIS_TYPE":"0","SEMIMAJOR_AXIS":"6903.228"},{"MEAN_MOTION_DOT":"-0.00686153","TLE_LINE1":"1 55614U 23020AX  23107.91667824 -.00686153  00000-0 -13272-1 0  9991","CENTER_NAME":"EARTH","MEAN_MOTION":"15.49459842","TLE_LINE2":"2 55614  42.9994 326.2899 0001446 272.6104 292.2283 15.49459842  1309","APOAPSIS":"419.290","SEMIMAJOR_AXIS":"6796.442","EPHEMERIS_TYPE":"0","ELEMENT_SET_NO":"999","CLASSIFICATION_TYPE":"U","PERIOD":"92.936","RCS_SIZE":"LARGE","REV_AT_EPOCH":"130","ARG_OF_PERICENTER":"272.6104","MEAN_MOTION_DDOT":"0.0000000000000","EPOCH":"2023-04-17T22:00:00.999936","INCLINATION":"42.9994","LAUNCH_DATE":"2023-02-12","MEAN_ELEMENT_THEORY":"SGP4","COUNTRY_CODE":"US","TIME_SYSTEM":"UTC","BSTAR":"-0.01327200000000","OBJECT_ID":"2023-020AX","MEAN_ANOMALY":"292.2283","ECCENTRICITY":"0.00014460","PERIAPSIS":"417.324","GP_ID":"230266638","FILE":"3889391","OBJECT_NAME":"STARLINK-5714","NORAD_CAT_ID":"55614","REF_FRAME":"TEME","OBJECT_TYPE":"PAYLOAD","SITE":"AFETR","RA_OF_ASC_NODE":"326.2899","DECAY_DATE":null},{"RCS_SIZE":"LARGE","PERIOD":"95.087","INCLINATION":"42.9986","LAUNCH_DATE":"2023-02-12","MEAN_MOTION_DDOT":"0.0000000000000","EPOCH":"2023-04-17T22:00:00.999936","REV_AT_EPOCH":"130","ARG_OF_PERICENTER":"275.0116","EPHEMERIS_TYPE":"0","SEMIMAJOR_AXIS":"6900.907","CLASSIFICATION_TYPE":"U","ELEMENT_SET_NO":"999","CENTER_NAME":"EARTH","TLE_LINE2":"2 55615  42.9986 334.2746 0001148 275.0116 259.1230 15.14409993  1308","APOAPSIS":"523.565","MEAN_MOTION":"15.14409993","MEAN_MOTION_DOT":"-0.00910416","TLE_LINE1":"1 55615U 23020AY  23107.91667824 -.00910416  00000-0 -52580-1 0  9999","DECAY_DATE":null,"RA_OF_ASC_NODE":"334.2746","OBJECT_NAME":"STARLINK-5712","GP_ID":"230266888","FILE":"3889391","SITE":"AFETR","OBJECT_TYPE":"PAYLOAD","REF_FRAME":"TEME","NORAD_CAT_ID":"55615","MEAN_ANOMALY":"259.1230","PERIAPSIS":"521.980","ECCENTRICITY":"0.00011480","COUNTRY_CODE":"US","TIME_SYSTEM":"UTC","MEAN_ELEMENT_THEORY":"SGP4","OBJECT_ID":"2023-020AY","BSTAR":"-0.05258000000000"},{"RA_OF_ASC_NODE":"334.1977","DECAY_DATE":null,"OBJECT_NAME":"STARLINK-5710","GP_ID":"230268140","FILE":"3889391","OBJECT_TYPE":"PAYLOAD","SITE":"AFETR","REF_FRAME":"TEME","NORAD_CAT_ID":"55616","MEAN_ANOMALY":"300.6986","PERIAPSIS":"520.597","ECCENTRICITY":"0.00011080","COUNTRY_CODE":"US","TIME_SYSTEM":"UTC","MEAN_ELEMENT_THEORY":"SGP4","OBJECT_ID":"2023-020AZ","BSTAR":"-0.05150700000000","PERIOD":"95.057","RCS_SIZE":"LARGE","INCLINATION":"42.9982","LAUNCH_DATE":"2023-02-12","MEAN_MOTION_DDOT":"0.0000000000000","EPOCH":"2023-04-17T22:00:00.999936","REV_AT_EPOCH":"130","ARG_OF_PERICENTER":"265.4486","EPHEMERIS_TYPE":"0","SEMIMAJOR_AXIS":"6899.496","CLASSIFICATION_TYPE":"U","ELEMENT_SET_NO":"999","CENTER_NAME":"EARTH","TLE_LINE2":"2 55616  42.9982 334.1977 0001108 265.4486 300.6986 15.14874574  1300","APOAPSIS":"522.126","MEAN_MOTION":"15.14874574","MEAN_MOTION_DOT":"-0.00904184","TLE_LINE1":"1 55616U 23020AZ  23107.91667824 -.00904184  00000-0 -51507-1 0  9993"},{"PERIOD":"95.081","RCS_SIZE":"LARGE","MEAN_MOTION_DDOT":"0.0000000000000","EPOCH":"2023-04-17T22:00:00.999936","INCLINATION":"42.9985","LAUNCH_DATE":"2023-02-12","ARG_OF_PERICENTER":"275.4265","REV_AT_EPOCH":"130","SEMIMAJOR_AXIS":"6900.651","EPHEMERIS_TYPE":"0","CLASSIFICATION_TYPE":"U","ELEMENT_SET_NO":"999","CENTER_NAME":"EARTH","TLE_LINE2":"2 55617  42.9985 334.2594 0001110 275.4265 265.0023 15.14494293  1301","APOAPSIS":"523.282","MEAN_MOTION":"15.14494293","MEAN_MOTION_DOT":"-0.00907316","TLE_LINE1":"1 55617U 23020BA  23107.91667824 -.00907316  00000-0 -52262-1 0  9993","RA_OF_ASC_NODE":"334.2594","DECAY_DATE":null,"OBJECT_NAME":"STARLINK-5721","GP_ID":"230267889","FILE":"3889391","SITE":"AFETR","OBJECT_TYPE":"PAYLOAD","NORAD_CAT_ID":"55617","REF_FRAME":"TEME","MEAN_ANOMALY":"265.0023","PERIAPSIS":"521.750","ECCENTRICITY":"0.00011100","MEAN_ELEMENT_THEORY":"SGP4","TIME_SYSTEM":"UTC","COUNTRY_CODE":"US","BSTAR":"-0.05226200000000","OBJECT_ID":"2023-020BA"},{"ECCENTRICITY":"0.00011120","PERIAPSIS":"520.330","MEAN_ANOMALY":"301.1909","OBJECT_ID":"2023-020BB","BSTAR":"-0.05139300000000","COUNTRY_CODE":"US","TIME_SYSTEM":"UTC","MEAN_ELEMENT_THEORY":"SGP4","RA_OF_ASC_NODE":"334.1834","DECAY_DATE":null,"REF_FRAME":"TEME","NORAD_CAT_ID":"55618","OBJECT_TYPE":"PAYLOAD","SITE":"AFETR","GP_ID":"230267139","FILE":"3889391","OBJECT_NAME":"STARLINK-5717","MEAN_MOTION":"15.14961589","APOAPSIS":"521.864","TLE_LINE2":"2 55618  42.9978 334.1834 0001112 271.1705 301.1909 15.14961589  1306","CENTER_NAME":"EARTH","TLE_LINE1":"1 55618U 23020BB  23107.91667824 -.00904406  00000-0 -51393-1 0  9995","MEAN_MOTION_DOT":"-0.00904406","REV_AT_EPOCH":"130","ARG_OF_PERICENTER":"271.1705","INCLINATION":"42.9978","LAUNCH_DATE":"2023-02-12","MEAN_MOTION_DDOT":"0.0000000000000","EPOCH":"2023-04-17T22:00:00.999936","RCS_SIZE":"LARGE","PERIOD":"95.052","ELEMENT_SET_NO":"999","CLASSIFICATION_TYPE":"U","EPHEMERIS_TYPE":"0","SEMIMAJOR_AXIS":"6899.232"},{"MEAN_MOTION_DOT":"-0.00906041","TLE_LINE1":"1 55619U 23020BC  23107.91667824 -.00906041  00000-0 -51272-1 0  9999","CENTER_NAME":"EARTH","APOAPSIS":"521.433","TLE_LINE2":"2 55619  42.9979 334.1590 0001149 271.1492 311.3267 15.15112225  1306","MEAN_MOTION":"15.15112225","EPHEMERIS_TYPE":"0","SEMIMAJOR_AXIS":"6898.775","CLASSIFICATION_TYPE":"U","ELEMENT_SET_NO":"999","PERIOD":"95.042","RCS_SIZE":"LARGE","LAUNCH_DATE":"2023-02-12","INCLINATION":"42.9979","MEAN_MOTION_DDOT":"0.0000000000000","EPOCH":"2023-04-17T22:00:00.999936","ARG_OF_PERICENTER":"271.1492","REV_AT_EPOCH":"130","TIME_SYSTEM":"UTC","COUNTRY_CODE":"US","MEAN_ELEMENT_THEORY":"SGP4","OBJECT_ID":"2023-020BC","BSTAR":"-0.05127200000000","MEAN_ANOMALY":"311.3267","PERIAPSIS":"519.847","ECCENTRICITY":"0.00011490","OBJECT_NAME":"STARLINK-5720","FILE":"3889391","GP_ID":"230267389","SITE":"AFETR","OBJECT_TYPE":"PAYLOAD","REF_FRAME":"TEME","NORAD_CAT_ID":"55619","DECAY_DATE":null,"RA_OF_ASC_NODE":"334.1590"},{"ELEMENT_SET_NO":"999","CLASSIFICATION_TYPE":"U","EPHEMERIS_TYPE":"0","SEMIMAJOR_AXIS":"6896.256","ARG_OF_PERICENTER":"275.0390","REV_AT_EPOCH":"130","LAUNCH_DATE":"2023-02-12","INCLINATION":"42.9989","EPOCH":"2023-04-17T22:00:00.999936","MEAN_MOTION_DDOT":"0.0000000000000","PERIOD":"94.990","RCS_SIZE":"LARGE","TLE_LINE1":"1 55620U 23020BD  23107.91667824 -.00904655  00000-0 -49986-1 0  9999","MEAN_MOTION_DOT":"-0.00904655","MEAN_MOTION":"15.15942518","APOAPSIS":"518.941","TLE_LINE2":"2 55620  42.9989 334.0327 0001189 275.0390   0.3240 15.15942518  1302","CENTER_NAME":"EARTH","REF_FRAME":"TEME","NORAD_CAT_ID":"55620","OBJECT_TYPE":"PAYLOAD","SITE":"AFETR","GP_ID":"230267640","FILE":"3889391","OBJECT_NAME":"STARLINK-5718","RA_OF_ASC_NODE":"334.0327","DECAY_DATE":null,"OBJECT_ID":"2023-020BD","BSTAR":"-0.04998600000000","COUNTRY_CODE":"US","TIME_SYSTEM":"UTC","MEAN_ELEMENT_THEORY":"SGP4","ECCENTRICITY":"0.00011890","PERIAPSIS":"517.301","MEAN_ANOMALY":"0.3240"},{"EPHEMERIS_TYPE":"0","SEMIMAJOR_AXIS":"6899.801","CLASSIFICATION_TYPE":"U","ELEMENT_SET_NO":"999","RCS_SIZE":"LARGE","PERIOD":"95.064","LAUNCH_DATE":"2023-02-12","INCLINATION":"42.9989","EPOCH":"2023-04-17T22:00:00.999936","MEAN_MOTION_DDOT":"0.0000000000000","ARG_OF_PERICENTER":"263.8562","REV_AT_EPOCH":"130","MEAN_MOTION_DOT":"-0.00905706","TLE_LINE1":"1 55621U 23020BE  23107.91667824 -.00905706  00000-0 -51748-1 0  9997","CENTER_NAME":"EARTH","TLE_LINE2":"2 55621  42.9989 334.2148 0001114 263.8562 295.1470 15.14774298  1306","APOAPSIS":"522.434","MEAN_MOTION":"15.14774298","OBJECT_NAME":"STARLINK-5709","GP_ID":"230268390","FILE":"3889391","OBJECT_TYPE":"PAYLOAD","SITE":"AFETR","REF_FRAME":"TEME","NORAD_CAT_ID":"55621","DECAY_DATE":null,"RA_OF_ASC_NODE":"334.2148","COUNTRY_CODE":"US","TIME_SYSTEM":"UTC","MEAN_ELEMENT_THEORY":"SGP4","OBJECT_ID":"2023-020BE","BSTAR":"-0.05174800000000","MEAN_ANOMALY":"295.1470","ECCENTRICITY":"0.00011140","PERIAPSIS":"520.897"},{"MEAN_ELEMENT_THEORY":"SGP4","TIME_SYSTEM":"UTC","COUNTRY_CODE":"US","BSTAR":"-0.05096100000000","OBJECT_ID":"2023-020BF","MEAN_ANOMALY":"320.1159","ECCENTRICITY":"0.00011320","PERIAPSIS":"519.610","OBJECT_NAME":"STARLINK-5702","FILE":"3889391","GP_ID":"230266639","SITE":"AFETR","OBJECT_TYPE":"PAYLOAD","NORAD_CAT_ID":"55622","REF_FRAME":"TEME","DECAY_DATE":null,"RA_OF_ASC_NODE":"334.1440","MEAN_MOTION_DOT":"-0.00902899","TLE_LINE1":"1 55622U 23020BF  23107.91667824 -.00902899  00000-0 -50961-1 0  9994","CENTER_NAME":"EARTH","APOAPSIS":"521.171","TLE_LINE2":"2 55622  42.9986 334.1440 0001132 268.3998 320.1159 15.15194385  1308","MEAN_MOTION":"15.15194385","SEMIMAJOR_AXIS":"6898.525","EPHEMERIS_TYPE":"0","CLASSIFICATION_TYPE":"U","ELEMENT_SET_NO":"999","PERIOD":"95.037","RCS_SIZE":"LARGE","MEAN_MOTION_DDOT":"0.0000000000000","EPOCH":"2023-04-17T22:00:00.999936","LAUNCH_DATE":"2023-02-12","INCLINATION":"42.9986","ARG_OF_PERICENTER":"268.3998","REV_AT_EPOCH":"130"}];
